{"type": "FeatureCollection", "features": [ {"type": "Feature", "properties": {"norad_id": 67228, "name": "QPS-SAR-15", "group": "last-30-days", "lat": -41.98348531009205, "lon": 9.608822346140098, "alt_km": 572.772324237596, "timestamp": "2025-12-25T11:37:43.137834+00:00", "meta": {"OBJECT_NAME": "QPS-SAR-15", "OBJECT_ID": "2025-307A", "EPOCH": "2025-12-24T15:12:58.225536", "MEAN_MOTION": 14.97075685, "ECCENTRICITY": 0.00101278, "INCLINATION": 42.0067, "RA_OF_ASC_NODE": 105.1986, "ARG_OF_PERICENTER": 288.6149, "MEAN_ANOMALY": 71.3576, "EPHEMERIS_TYPE": 0, "CLASSIFICATION_TYPE": "U", "NORAD_CAT_ID": 67228, "ELEMENT_SET_NO": 999, "REV_AT_EPOCH": 50, "BSTAR": 0.00051259096, "MEAN_MOTION_DOT": 5.837e-05, "MEAN_MOTION_DDOT": 0}, "tle": {"line1": "1 67228U 25307A   25358.63400724  .00005837  00000+0  51259-3 0  9998", "line2": "2 67228  42.0067 105.1986 0010127 288.6149  71.3576 14.97075685   501"}}, "geometry": {"type": "Point", "coordinates": [9.608822346140098, -41.98348531009205]}}, {"type": "Feature", "properties": {"norad_id": 67229, "name": "ELECTRON KICK STAGE R/B", "group": "last-30-days", "lat": 35.18112124285996, "lon": 149.98923919881756, "alt_km": 537.5236904144431, "timestamp": "2025-12-25T11:37:43.137845+00:00", "meta": {"OBJECT_NAME": "ELECTRON KICK STAGE R/B", "OBJECT_ID": "2025-307B", "EPOCH": "2025-12-24T13:48:14.301792", "MEAN_MOTION": 15.55758318, "ECCENTRICITY": 0.02455668, "INCLINATION": 42.0011, "RA_OF_ASC_NODE": 103.8717, "ARG_OF_PERICENTER": 260.032, "MEAN_ANOMALY": 97.2731, "EPHEMERIS_TYPE": 0, "CLASSIFICATION_TYPE": "U", "NORAD_CAT_ID": 67229, "ELEMENT_SET_NO": 999, "REV_AT_EPOCH": 51, "BSTAR": 0.0014822418, "MEAN_MOTION_DOT": 0.00454501, "MEAN_MOTION_DDOT": 6.1387959e-05}, "tle": {"line1": "1 67229U 25307B   25358.57516553  .00454501  61388-4  14822-2 0  9991", "line2": "2 67229  42.0011 103.8717 0245566 260.0320  97.2731 15.55758318   517"}}, "geometry": {"type": "Point", "coordinates": [149.98923919881756, 35.18112124285996]}}, {"type": "Feature", "properties": {"norad_id": 67230, "name": "ELECTRON R/B", "group": "last-30-days", "lat": 38.80642780832567, "lon": 161.80354242427632, "alt_km": 509.32459502073834, "timestamp": "2025-12-25T11:37:43.137859+00:00", "meta": {"OBJECT_NAME": "ELECTRON R/B", "OBJECT_ID": "2025-307C", "EPOCH": "2025-12-21T08:41:59.140320", "MEAN_MOTION": 15.55087105, "ECCENTRICITY": 0.02614087, "INCLINATION": 41.982, "RA_OF_ASC_NODE": 123.1026, "ARG_OF_PERICENTER": 268.141, "MEAN_ANOMALY": 88.9482, "EPHEMERIS_TYPE": 0, "CLASSIFICATION_TYPE": "U", "NORAD_CAT_ID": 67230, "ELEMENT_SET_NO": 999, "REV_AT_EPOCH": 1, "BSTAR": 0.00020247584, "MEAN_MOTION_DOT": 0.00071881, "MEAN_MOTION_DDOT": 8.106877e-06}, "tle": {"line1": "1 67230U 25307C   25355.36249005  .00071881  81069-5  20248-3 0  9997", "line2": "2 67230  41.9820 123.1026 0261408 268.1410  88.9482 15.55087105    19"}}, "geometry": {"type": "Point", "coordinates": [161.80354242427632, 38.80642780832567]}}, {"type": "Feature", "properties": {"norad_id": 67231, "name": "2025-308A", "group": "last-30-days", "lat": 66.12782666227655, "lon": 113.26210743785113, "alt_km": 196.70543918279964, "timestamp": "2025-12-25T11:37:43.137869+00:00", "meta": {"OBJECT_NAME": "2025-308A", "OBJECT_ID": "2025-308A", "EPOCH": "2025-12-25T02:26:22.274880", "MEAN_MOTION": 16.23030612, "ECCENTRICITY": 0.0024141, "INCLINATION": 69.7078, "RA_OF_ASC_NODE": 57.7078, "ARG_OF_PERICENTER": 150.5925, "MEAN_ANOMALY": 209.666, "EPHEMERIS_TYPE": 0, "CLASSIFICATION_TYPE": "U", "NORAD_CAT_ID": 67231, "ELEMENT_SET_NO": 999, "REV_AT_EPOCH": 33, "BSTAR": 0.00053844, "MEAN_MOTION_DOT": 0.01402377, "MEAN_MOTION_DDOT": 4.3663e-06}, "tle": {"line1": "1 67231U 25308A   25359.10164670  .01402377  43663-5  53844-3 0  9994", "line2": "2 67231  69.7078  57.7078 0024141 150.5925 209.6660 16.23030612   330"}}, "geometry": {"type": "Point", "coordinates": [113.26210743785113, 66.12782666227655]}}]}